[{"OBJECT_NAME":"STARLINK-6141","OBJECT_ID":"2023-090M","EPOCH":"2026-03-08T23:22:47.386848","MEAN_MOTION":15.02533141,"ECCENTRICITY":0.00012016,"INCLINATION":43.0026,"RA_OF_ASC_NODE":278.7203,"ARG_OF_PERICENTER":259.6416,"MEAN_ANOMALY":100.4291,"EPHEMERIS_TYPE":0,"CLASSIFICATION_TYPE":"U","NORAD_CAT_ID":57112,"ELEMENT_SET_NO":999,"REV_AT_EPOCH":15030,"BSTAR":5.3276378e-5,"MEAN_MOTION_DOT":5.16e-6,"MEAN_MOTION_DDOT":0},{"OBJECT_NAME":"UNKNOWN","OBJECT_ID":"","EPOCH":"2026-03-09T07:01:12.592704","MEAN_MOTION":13.64489444,"ECCENTRICITY":0.0645911,"INCLINATION":65.6021,"RA_OF_ASC_NODE":22.7331,"ARG_OF_PERICENTER":25.8878,"MEAN_ANOMALY":337.3037,"EPHEMERIS_TYPE":0,"CLASSIFICATION_TYPE":"U","NORAD_CAT_ID":87163,"ELEMENT_SET_NO":999,"REV_AT_EPOCH":58932,"BSTAR":0.0022769,"MEAN_MOTION_DOT":7.8e-5,"MEAN_MOTION_DDOT":0}]
